[{"OBJECT_NAME":"STARLINK-33699","OBJECT_ID":"2025-057X","EPOCH":"2026-03-09T22:16:54.969600","MEAN_MOTION":15.27595076,"ECCENTRICITY":0.00011547,"INCLINATION":43.0037,"RA_OF_ASC_NODE":21.7339,"ARG_OF_PERICENTER":258.8037,"MEAN_ANOMALY":101.2685,"EPHEMERIS_TYPE":0,"CLASSIFICATION_TYPE":"U","NORAD_CAT_ID":63328,"ELEMENT_SET_NO":999,"REV_AT_EPOCH":5586,"BSTAR":0.001330796,"MEAN_MOTION_DOT":0.00036557,"MEAN_MOTION_DDOT":0},{"OBJECT_NAME":"CZ-6A DEB","OBJECT_ID":"2024-140KE","EPOCH":"2026-03-09T13:17:54.060288","MEAN_MOTION":15.16973657,"ECCENTRICITY":0.0047014,"INCLINATION":88.8608,"RA_OF_ASC_NODE":269.4441,"ARG_OF_PERICENTER":134.0266,"MEAN_ANOMALY":226.4867,"EPHEMERIS_TYPE":0,"CLASSIFICATION_TYPE":"U","NORAD_CAT_ID":60875,"ELEMENT_SET_NO":999,"REV_AT_EPOCH":8467,"BSTAR":0.004516425,"MEAN_MOTION_DOT":0.00092692,"MEAN_MOTION_DDOT":0}]
